1 43508U 18053A   21079.28243669  .00000015  00000-0  00000-0 0  9992
2 43508  64.8881 138.0557 0008452 235.1608 314.1875  2.13102538 21467
1 43508U 18053A   21079.53533530  .00000016  00000-0  00000-0 0  9990
2 43508  64.8879 138.0469 0008472 235.3863 147.9780  2.13102545 21479
1 43508U 18053A   21080.35352398  .00000020  00000-0  00000+0 0  9997
2 43508  64.8880 138.0194 0008474 235.3924  55.6598  2.13102548 21482
1 43508U 18053A   21080.35352398  .00000020  00000-0  00000-0 0  9998
2 43508  64.8880 138.0194 0008474 235.3924  55.6598  2.13102548 21482
1 43508U 18053A   21080.82892904  .00000024  00000-0  00000-0 0  9996
2 43508  64.8880 138.0034 0008470 235.3956  60.3718  2.13102542 21498
1 43508U 18053A   21081.44771163  .00000029  00000-0  00000-0 0  9993
2 43508  64.8881 137.9827 0008490 235.6062 174.8720  2.13102559 21515
1 43508U 18053A   21081.71306571  .00000032  00000-0  00000+0 0  9993
2 43508  64.8881 137.9738 0008491 235.6046  18.4445  2.13102558 21515
1 43508U 18053A   21081.71306571  .00000032  00000-0  00000-0 0  9994
2 43508  64.8881 137.9738 0008491 235.6046  18.4445  2.13102558 21515
1 43508U 18053A   21082.32357398  .00000039  00000-0  00000-0 0  9992
2 43508  64.8882 137.9531 0008518 235.8202 126.5920  2.13102577 21535
1 43508U 18053A   21082.65998406  .00000042  00000-0  00000-0 0  9993
2 43508  64.8883 137.9419 0008518 235.8201  24.6749  2.13102577 21537
1 43508U 18053A   21083.13381413  .00000048  00000-0  00000+0 0  9996
2 43508  64.8884 137.9261 0008552 235.9624  28.0402  2.13102588 21548
1 43508U 18053A   21083.13381413  .00000048  00000-0  00000-0 0  9997
2 43508  64.8884 137.9261 0008552 235.9624  28.0402  2.13102588 21548
1 43508U 18053A   21083.60501064  .00000053  00000-0  00000-0 0  9991
2 43508  64.8885 137.9103 0008560 236.0076  29.4823  2.13102600 21554
1 43508U 18053A   21083.72960177  .00000055  00000-0  00000-0 0  9990
2 43508  64.8885 137.9061 0008564 236.0536 125.0189  2.13102605 21566
1 43508U 18053A   21085.13565738  .00000068  00000-0  00000+0 0  9994
2 43508  64.8888 137.8585 0008616 236.2141 123.5384  2.13102595 21581
1 43508U 18053A   21085.13565738  .00000068  00000-0  00000-0 0  9995
2 43508  64.8888 137.8585 0008616 236.2141 123.5384  2.13102595 21581
1 43508U 18053A   21085.60434832  .00000072  00000-0  00000-0 0  9992
2 43508  64.8891 137.8424 0008588 236.1829 123.1353  2.13102617 21595
1 43508U 18053A   21086.14463075  .00000075  00000-0  00000+0 0  9995
2 43508  64.8890 137.8246 0008633 236.3490 177.4567  2.13102625 21614
1 43508U 18053A   21086.30718818  .00000076  00000-0  00000-0 0  9993
2 43508  64.8890 137.8193 0008644 236.3881 302.1260  2.13102620 21613
1 43508U 18053A   21086.77603652  .00000077  00000-0  00000-0 0  9994
2 43508  64.8891 137.8034 0008687 236.6267 301.5721  2.13102611 21622
1 43508U 18053A   21087.47907071  .00000076  00000-0  00000+0 0  9992
2 43508  64.8891 137.7798 0008704 236.7580 120.7862  2.13102617 21631
1 43508U 18053A   21087.47907071  .00000076  00000-0  00000-0 0  9993
2 43508  64.8891 137.7798 0008704 236.7580 120.7862  2.13102617 21631
1 43508U 18053A   21087.71339400  .00000075  00000-0  00000-0 0  9994
2 43508  64.8891 137.7720 0008719 236.8054 300.5036  2.13102611 21645
1 43508U 18053A   21088.18202521  .00000073  00000-0  00000-0 0  9997
2 43508  64.8892 137.7563 0008728 236.8835 299.9441  2.13102612 21651
1 43508U 18053A   21088.52236685  .00000070  00000-0  00000+0 0  9999
2 43508  64.8892 137.7450 0008741 237.0454 200.8818  2.13102625 21665
1 43508U 18053A   21088.52236685  .00000070  00000-0  00000-0 0  9990
2 43508  64.8892 137.7450 0008741 237.0454 200.8818  2.13102625 21665
1 43508U 18053A   21089.35605267  .00000062  00000-0  00000-0 0  9999
2 43508  64.8893 137.7170 0008734 237.1800 120.3242  2.13102630 21677
1 43508U 18053A   21089.50987850  .00000061  00000-0  00000-0 0  9996
2 43508  64.8892 137.7121 0008757 237.1480 238.3663  2.13102634 21683
1 43508U 18053A   21090.21611782  .00000052  00000-0  00000+0 0  9993
2 43508  64.8894 137.6885 0008782 237.2833  60.0352  2.13102645 21690
1 43508U 18053A   21090.21611782  .00000052  00000-0  00000-0 0  9994
2 43508  64.8894 137.6885 0008782 237.2833  60.0352  2.13102645 21690
1 43508U 18053A   21090.63211395  .00000047  00000-0  00000-0 0  9990
2 43508  64.8895 137.6744 0008785 237.3468  19.1106  2.13102647 21709
1 43508U 18053A   21091.10407429  .00000041  00000-0  00000-0 0  9992
2 43508  64.8896 137.6587 0008811 237.4444  21.0858  2.13102650 21711
1 43508U 18053A   21092.10355017  .00000030  00000-0  00000+0 0  9995
2 43508  64.8899 137.6252 0008826 237.4588  67.8372  2.13102657 21736
1 43508U 18053A   21092.17790878  .00000029  00000-0  00000-0 0  9999
2 43508  64.8899 137.6228 0008831 237.5010 124.8405  2.13102656 21747
1 43508U 18053A   21092.63572884  .00000026  00000-0  00000-0 0  9992
2 43508  64.8900 137.6075 0008840 237.5949 115.9712  2.13102652 21749
1 43508U 18053A   21093.35188346  .00000023  00000-0  00000+0 0  9994
2 43508  64.8901 137.5835 0008843 237.6275 305.3492  2.13102652 21761
1 43508U 18053A   21093.35188346  .00000023  00000-0  00000-0 0  9995
2 43508  64.8901 137.5835 0008843 237.6275 305.3492  2.13102652 21761
1 43508U 18053A   21093.46108332  .00000023  00000-0  00000-0 0  9994
2 43508  64.8901 137.5798 0008843 237.6546  29.0965  2.13102650 21763
1 43508U 18053A   21094.40834271  .00000025  00000-0  00000+0 0  9998
2 43508  64.8901 137.5483 0008875 237.7918  35.6647  2.13102633 21786
1 43508U 18053A   21094.40834271  .00000025  00000-0  00000-0 0  9999
2 43508  64.8901 137.5483 0008875 237.7918  35.6647  2.13102633 21786
1 43508U 18053A   21094.52337127  .00000025  00000-0  00000-0 0  9990
2 43508  64.8901 137.5448 0008881 237.9292 123.7733  2.13102632 21796
1 43508U 18053A   21095.08634038  .00000029  00000-0  00000-0 0  9997
2 43508  64.8902 137.5259 0008880 237.9555 195.6386  2.13102631 21801
1 43508U 18053A   21095.42885890  .00000032  00000-0  00000+0 0  9992
2 43508  64.8901 137.5143 0008893 238.1648  98.1985  2.13102632 21805
1 43508U 18053A   21095.82394413  .00000036  00000-0  00000-0 0  9997
2 43508  64.8902 137.5011 0008895 238.2453  41.2144  2.13102626 21817
1 43508U 18053A   21096.64098068  .00000046  00000-0  00000+0 0  9995
2 43508  64.8903 137.4737 0008989 239.0412 307.2204  2.13102597 21831
1 43508U 18053A   21096.77142153  .00000047  00000-0  00000-0 0  9996
2 43508  64.8903 137.4695 0009003 239.0521  47.2788  2.13102590 21834
1 43508U 18053A   21097.23950976  .00000053  00000-0  00000-0 0  9995
2 43508  64.8903 137.4538 0009014 239.1675  46.2657  2.13102595 21843
1 43508U 18053A   21097.71653758  .00000058  00000-0  00000+0 0  9990
2 43508  64.8900 137.4372 0009035 239.8040  51.5897  2.13102591 21854
1 43508U 18053A   21097.71653758  .00000058  00000-0  00000-0 0  9991
2 43508  64.8900 137.4372 0009035 239.8040  51.5897  2.13102591 21854
1 43508U 18053A   21098.48125963  .00000065  00000-0  00000-0 0  9996
2 43508  64.8902 137.4116 0009041 239.8312 278.2322  2.13102590 21873
1 43508U 18053A   21099.13020545  .00000070  00000-0  00000+0 0  9994
2 43508  64.8903 137.3898 0009039 239.8427  56.0709  2.13102589 21884
1 43508U 18053A   21099.21577150  .00000070  00000-0  00000-0 0  9993
2 43508  64.8903 137.3870 0009046 239.8809 121.6759  2.13102582 21894
1 43508U 18053A   21099.70843233  .00000072  00000-0  00000-0 0  9997
2 43508  64.8904 137.3705 0009053 239.9266 139.5837  2.13102584 21907
1 43508U 18053A   21100.21645174  .00000073  00000-0  00000+0 0  9990
2 43508  64.8904 137.3531 0009063 239.9603 169.2862  2.13102587 21912
1 43508U 18053A   21100.54948086  .00000073  00000-0  00000-0 0  9995
2 43508  64.8905 137.3420 0009064 239.9488  64.7869  2.13102588 21919
1 43508U 18053A   21100.79738214  .00000073  00000-0  00000-0 0  9992
2 43508  64.8909 137.3341 0009098 240.1297 254.7871  2.13102583 21924
1 43508U 18053A   21101.21696352  .00000072  00000-0  00000+0 0  9994
2 43508  64.8908 137.3199 0009095 240.1521 216.6543  2.13102585 21937
1 43508U 18053A   21101.21696352  .00000072  00000-0  00000-0 0  9995
2 43508  64.8908 137.3199 0009095 240.1521 216.6543  2.13102585 21937
1 43508U 18053A   21101.74006184  .00000070  00000-0  00000-0 0  9999
2 43508  64.8910 137.3025 0009109 240.2180 257.8921  2.13102583 21942
1 43508U 18053A   21102.47296446  .00000066  00000-0  00000-0 0  9997
2 43508  64.8912 137.2782 0009117 240.2822 100.0870  2.13102584 21959
1 43508U 18053A   21102.85049737  .00000063  00000-0  00000+0 0  9994
2 43508  64.8912 137.2656 0009118 240.3209  29.6795  2.13102588 21967
1 43508U 18053A   21104.09344683  .00000056  00000-0  00000+0 0  9992
2 43508  64.8914 137.2241 0009140 240.4367 263.1143  2.13102594 21992
1 43508U 18053A   21104.38305523  .00000055  00000-0  00000-0 0  9994
2 43508  64.8915 137.2144 0009157 240.5055 125.2239  2.13102597 22008
1 43508U 18053A   21105.30216293  .00000052  00000-0  00000+0 0  9998
2 43508  64.8912 137.1827 0009193 241.1433 109.6955  2.13102592 22016
1 43508U 18053A   21105.30216293  .00000052  00000-0  00000-0 0  9999
2 43508  64.8912 137.1827 0009193 241.1433 109.6955  2.13102592 22016
1 43508U 18053A   21105.50865523  .00000052  00000-0  00000-0 0  9997
2 43508  64.8911 137.1758 0009219 241.2632 267.9892  2.13102580 22025
1 43508U 18053A   21106.15540899  .00000052  00000-0  00000-0 0  9995
2 43508  64.8911 137.1540 0009223 241.2865  44.1345  2.13102584 22030
1 43508U 18053A   21106.62861977  .00000053  00000-0  00000+0 0  9990
2 43508  64.8912 137.1383 0009186 241.2464  47.2080  2.13102604 22043
1 43508U 18053A   21106.62861977  .00000053  00000-0  00000-0 0  9991
2 43508  64.8912 137.1383 0009186 241.2464  47.2080  2.13102604 22043
1 43508U 18053A   21107.57649862  .00000058  00000-0  00000-0 0  9998
2 43508  64.8913 137.1065 0009190 241.2443  54.3920  2.13102604 22067
1 43508U 18053A   21107.93746051  .00000061  00000-0  00000-0 0  9990
2 43508  64.8914 137.0944 0009193 241.2247 331.3299  2.13102605 22077
